{"type": "FeatureCollection", "features": [ {"type": "Feature", "properties": {"norad_id": 30846, "name": "FENGYUN 1C DEB", "group": "fengyun-1c-debris", "lat": -3.4671273393624666, "lon": 170.2921218536867, "alt_km": 730.0425755983069, "timestamp": "2025-12-21T16:47:55.017331+00:00", "meta": {"OBJECT_NAME": "FENGYUN 1C DEB", "OBJECT_ID": "1999-025AWG", "EPOCH": "2025-12-21T07:23:23.154432", "MEAN_MOTION": 14.4158159, "ECCENTRICITY": 0.0053929, "INCLINATION": 99.3206, "RA_OF_ASC_NODE": 169.2946, "ARG_OF_PERICENTER": 311.2689, "MEAN_ANOMALY": 171.493, "EPHEMERIS_TYPE": 0, "CLASSIFICATION_TYPE": "U", "NORAD_CAT_ID": 30846, "ELEMENT_SET_NO": 999, "REV_AT_EPOCH": 98053, "BSTAR": 0.00059714, "MEAN_MOTION_DOT": 1.924e-05, "MEAN_MOTION_DDOT": 0}, "tle": {"line1": "1 30846U 99025AWG 25355.30790688  .00001924  00000+0  59714-3 0  9991", "line2": "2 30846  99.3206 169.2946 0053929 311.2689 171.4930 14.41581590980535"}}, "geometry": {"type": "Point", "coordinates": [170.2921218536867, -3.4671273393624666]}}, {"type": "Feature", "properties": {"norad_id": 30847, "name": "FENGYUN 1C DEB", "group": "fengyun-1c-debris", "lat": -1.4818018692746027, "lon": 155.9219349385707, "alt_km": 811.8903113508604, "timestamp": "2025-12-21T16:47:55.017344+00:00", "meta": {"OBJECT_NAME": "FENGYUN 1C DEB", "OBJECT_ID": "1999-025AWH", "EPOCH": "2025-12-21T03:29:42.019008", "MEAN_MOTION": 14.1707714, "ECCENTRICITY": 0.00655602, "INCLINATION": 98.7316, "RA_OF_ASC_NODE": 155.1499, "ARG_OF_PERICENTER": 303.9037, "MEAN_ANOMALY": 107.8407, "EPHEMERIS_TYPE": 0, "CLASSIFICATION_TYPE": "U", "NORAD_CAT_ID": 30847, "ELEMENT_SET_NO": 999, "REV_AT_EPOCH": 96174, "BSTAR": 0.0012507345, "MEAN_MOTION_DOT": 2.527e-05, "MEAN_MOTION_DDOT": 0}, "tle": {"line1": "1 30847U 99025AWH 25355.14562522  .00002527  00000+0  12507-2 0  9996", "line2": "2 30847  98.7316 155.1499 0065560 303.9037 107.8407 14.17077140961745"}}, "geometry": {"type": "Point", "coordinates": [155.9219349385707, -1.4818018692746027]}}, {"type": "Feature", "properties": {"norad_id": 30848, "name": "FENGYUN 1C DEB", "group": "fengyun-1c-debris", "lat": -57.790843450619505, "lon": -154.36611917013428, "alt_km": 752.9139305890039, "timestamp": "2025-12-21T16:47:55.017354+00:00", "meta": {"OBJECT_NAME": "FENGYUN 1C DEB", "OBJECT_ID": "1999-025AWJ", "EPOCH": "2025-12-21T12:02:56.455584", "MEAN_MOTION": 14.3453459, "ECCENTRICITY": 0.0043464, "INCLINATION": 99.057, "RA_OF_ASC_NODE": 190.7594, "ARG_OF_PERICENTER": 310.3453, "MEAN_ANOMALY": 49.3938, "EPHEMERIS_TYPE": 0, "CLASSIFICATION_TYPE": "U", "NORAD_CAT_ID": 30848, "ELEMENT_SET_NO": 999, "REV_AT_EPOCH": 97432, "BSTAR": 0.00089669, "MEAN_MOTION_DOT": 2.509e-05, "MEAN_MOTION_DDOT": 0}, "tle": {"line1": "1 30848U 99025AWJ 25355.50204231  .00002509  00000+0  89669-3 0  9991", "line2": "2 30848  99.0570 190.7594 0043464 310.3453  49.3938 14.34534590974329"}}, "geometry": {"type": "Point", "coordinates": [-154.36611917013428, -57.790843450619505]}}, {"type": "Feature", "properties": {"norad_id": 30849, "name": "FENGYUN 1C DEB", "group": "fengyun-1c-debris", "lat": -29.097968125915166, "lon": -129.20602521394133, "alt_km": 857.354714169317, "timestamp": "2025-12-21T16:47:55.017364+00:00", "meta": {"OBJECT_NAME": "FENGYUN 1C DEB", "OBJECT_ID": "1999-025AWK", "EPOCH": "2025-12-19T15:27:12.731040", "MEAN_MOTION": 14.18892004, "ECCENTRICITY": 0.0047911, "INCLINATION": 99.0479, "RA_OF_ASC_NODE": 53.7843, "ARG_OF_PERICENTER": 346.0232, "MEAN_ANOMALY": 167.3066, "EPHEMERIS_TYPE": 0, "CLASSIFICATION_TYPE": "U", "NORAD_CAT_ID": 30849, "ELEMENT_SET_NO": 999, "REV_AT_EPOCH": 96470, "BSTAR": 0.00099381, "MEAN_MOTION_DOT": 2.047e-05, "MEAN_MOTION_DDOT": 0}, "tle": {"line1": "1 30849U 99025AWK 25353.64389735  .00002047  00000+0  99381-3 0  9997", "line2": "2 30849  99.0479  53.7843 0047911 346.0232 167.3066 14.18892004964708"}}, "geometry": {"type": "Point", "coordinates": [-129.20602521394133, -29.097968125915166]}}, {"type": "Feature", "properties": {"norad_id": 30850, "name": "FENGYUN 1C DEB", "group": "fengyun-1c-debris", "lat": 55.2607913662096, "lon": -151.59900571521473, "alt_km": 865.5407113903748, "timestamp": "2025-12-21T16:47:55.017375+00:00", "meta": {"OBJECT_NAME": "FENGYUN 1C DEB", "OBJECT_ID": "1999-025AWL", "EPOCH": "2025-12-20T13:41:26.416032", "MEAN_MOTION": 14.16338705, "ECCENTRICITY": 0.0109159, "INCLINATION": 98.3943, "RA_OF_ASC_NODE": 219.6301, "ARG_OF_PERICENTER": 174.889, "MEAN_ANOMALY": 246.6179, "EPHEMERIS_TYPE": 0, "CLASSIFICATION_TYPE": "U", "NORAD_CAT_ID": 30850, "ELEMENT_SET_NO": 999, "REV_AT_EPOCH": 95909, "BSTAR": 0.0013597, "MEAN_MOTION_DOT": 2.821e-05, "MEAN_MOTION_DDOT": 0}, "tle": {"line1": "1 30850U 99025AWL 25354.57044463  .00002821  00000+0  13597-2 0  9992", "line2": "2 30850  98.3943 219.6301 0109159 174.8890 246.6179 14.16338705959093"}}, "geometry": {"type": "Point", "coordinates": [-151.59900571521473, 55.2607913662096]}}, {"type": "Feature", "properties": {"norad_id": 30852, "name": "FENGYUN 1C DEB", "group": "fengyun-1c-debris", "lat": -27.957947613232925, "lon": -171.4866981756676, "alt_km": 823.4366663262444, "timestamp": "2025-12-21T16:47:55.017389+00:00", "meta": {"OBJECT_NAME": "FENGYUN 1C DEB", "OBJECT_ID": "1999-025AWN", "EPOCH": "2025-12-21T00:29:18.003264", "MEAN_MOTION": 14.10297707, "ECCENTRICITY": 0.00561743, "INCLINATION": 98.7331, "RA_OF_ASC_NODE": 12.533, "ARG_OF_PERICENTER": 210.8451, "MEAN_ANOMALY": 148.9416, "EPHEMERIS_TYPE": 0, "CLASSIFICATION_TYPE": "U", "NORAD_CAT_ID": 30852, "ELEMENT_SET_NO": 999, "REV_AT_EPOCH": 96499, "BSTAR": 0.00030928284, "MEAN_MOTION_DOT": 5.14e-06, "MEAN_MOTION_DDOT": 0}, "tle": {"line1": "1 30852U 99025AWN 25355.02034726  .00000514  00000+0  30928-3 0  9991", "line2": "2 30852  98.7331  12.5330 0056174 210.8451 148.9416 14.10297707964997"}}, "geometry": {"type": "Point", "coordinates": [-171.4866981756676, -27.957947613232925]}}, {"type": "Feature", "properties": {"norad_id": 30856, "name": "FENGYUN 1C DEB", "group": "fengyun-1c-debris", "lat": 76.80866970626408, "lon": 142.24416840589095, "alt_km": 771.2409404256923, "timestamp": "2025-12-21T16:47:55.017399+00:00", "meta": {"OBJECT_NAME": "FENGYUN 1C DEB", "OBJECT_ID": "1999-025AWS", "EPOCH": "2025-12-21T11:34:52.904064", "MEAN_MOTION": 14.46448005, "ECCENTRICITY": 0.0087469, "INCLINATION": 98.1981, "RA_OF_ASC_NODE": 179.99, "ARG_OF_PERICENTER": 212.175, "MEAN_ANOMALY": 176.916, "EPHEMERIS_TYPE": 0, "CLASSIFICATION_TYPE": "U", "NORAD_CAT_ID": 30856, "ELEMENT_SET_NO": 999, "REV_AT_EPOCH": 96652, "BSTAR": 0.0037627, "MEAN_MOTION_DOT": 0.00014168, "MEAN_MOTION_DDOT": 0}, "tle": {"line1": "1 30856U 99025AWS 25355.48255676  .00014168  00000+0  37627-2 0  9996", "line2": "2 30856  98.1981 179.9900 0087469 212.1750 176.9160 14.46448005966521"}}, "geometry": {"type": "Point", "coordinates": [142.24416840589095, 76.80866970626408]}}, {"type": "Feature", "properties": {"norad_id": 30857, "name": "FENGYUN 1C DEB", "group": "fengyun-1c-debris", "lat": 80.98396783458561, "lon": -98.78747564749476, "alt_km": 741.0040258265171, "timestamp": "2025-12-21T16:47:55.017409+00:00", "meta": {"OBJECT_NAME": "FENGYUN 1C DEB", "OBJECT_ID": "1999-025AWT", "EPOCH": "2025-12-10T22:20:28.597056", "MEAN_MOTION": 14.51403304, "ECCENTRICITY": 0.0041899, "INCLINATION": 98.9745, "RA_OF_ASC_NODE": 334.5727, "ARG_OF_PERICENTER": 300.5616, "MEAN_ANOMALY": 59.1445, "EPHEMERIS_TYPE": 0, "CLASSIFICATION_TYPE": "U", "NORAD_CAT_ID": 30857, "ELEMENT_SET_NO": 999, "REV_AT_EPOCH": 96697, "BSTAR": 0.0076916, "MEAN_MOTION_DOT": 0.0003112, "MEAN_MOTION_DDOT": 0}, "tle": {"line1": "1 30857U 99025AWT 25344.93088654  .00031120  00000+0  76916-2 0  9996", "line2": "2 30857  98.9745 334.5727 0041899 300.5616  59.1445 14.51403304966970"}}, "geometry": {"type": "Point", "coordinates": [-98.78747564749476, 80.98396783458561]}}, {"type": "Feature", "properties": {"norad_id": 30858, "name": "FENGYUN 1C DEB", "group": "fengyun-1c-debris", "lat": 72.0250400821283, "lon": 24.734493535388513, "alt_km": 804.136749350796, "timestamp": "2025-12-21T16:47:55.017419+00:00", "meta": {"OBJECT_NAME": "FENGYUN 1C DEB", "OBJECT_ID": "1999-025AWU", "EPOCH": "2025-12-20T22:39:11.340000", "MEAN_MOTION": 14.17792665, "ECCENTRICITY": 0.0030638, "INCLINATION": 98.798, "RA_OF_ASC_NODE": 52.4984, "ARG_OF_PERICENTER": 87.0715, "MEAN_ANOMALY": 90.4746, "EPHEMERIS_TYPE": 0, "CLASSIFICATION_TYPE": "U", "NORAD_CAT_ID": 30858, "ELEMENT_SET_NO": 999, "REV_AT_EPOCH": 97096, "BSTAR": 0.00029074, "MEAN_MOTION_DOT": 5.52e-06, "MEAN_MOTION_DDOT": 0}, "tle": {"line1": "1 30858U 99025AWU 25354.94388125  .00000552  00000+0  29074-3 0  9994", "line2": "2 30858  98.7980  52.4984 0030638  87.0715  90.4746 14.17792665970966"}}, "geometry": {"type": "Point", "coordinates": [24.734493535388513, 72.0250400821283]}}, {"type": "Feature", "properties": {"norad_id": 30859, "name": "FENGYUN 1C DEB", "group": "fengyun-1c-debris", "lat": 78.7983693002612, "lon": -6.149903037005944, "alt_km": 717.1723342796222, "timestamp": "2025-12-21T16:47:55.017429+00:00", "meta": {"OBJECT_NAME": "FENGYUN 1C DEB", "OBJECT_ID": "1999-025AWV", "EPOCH": "2025-12-21T09:47:23.152704", "MEAN_MOTION": 14.49220142, "ECCENTRICITY": 0.0030699, "INCLINATION": 98.9209, "RA_OF_ASC_NODE": 46.0228, "ARG_OF_PERICENTER": 3.5298, "MEAN_ANOMALY": 356.6105, "EPHEMERIS_TYPE": 0, "CLASSIFICATION_TYPE": "U", "NORAD_CAT_ID": 30859, "ELEMENT_SET_NO": 999, "REV_AT_EPOCH": 97160, "BSTAR": 0.0019482, "MEAN_MOTION_DOT": 7.423e-05, "MEAN_MOTION_DDOT": 0}, "tle": {"line1": "1 30859U 99025AWV 25355.40790686  .00007423  00000+0  19482-2 0  9991", "line2": "2 30859  98.9209  46.0228 0030699   3.5298 356.6105 14.49220142971608"}}, "geometry": {"type": "Point", "coordinates": [-6.149903037005944, 78.7983693002612]}}]}